GALAXY 3C (G-3C)        
1 27445U 02030A   26155.34060669 -.00000141  00000+0  00000+0 0  9995
2 27445   3.6974  78.1472 0001980  28.6864 173.7216  1.00271893 46361
INTELSAT 906 (IS-906)   
1 27513U 02041A   26154.95669883  .00000023  00000+0  00000+0 0  9990
2 27513   5.7702  73.0820 0004745 356.2915 231.5963  1.00271308 86894
NIMIQ 2                 
1 27632U 02062A   26155.23725381 -.00000061  00000+0  00000+0 0  9996
2 27632   9.4164  57.0375 0005977  12.9020 158.9650  1.00272250 44051
USA 167                 
1 27691U 03008A   26155.24280872  .00000011  00000+0  00000+0 0  9998
2 27691  10.9357  43.5235 0004196 318.0423 216.7889  1.00274893  6646
USA 169 (MILSTAR-2 4)   
1 27711U 03012A   26154.95356671 -.00000237  00000+0  00000+0 0  9995
2 27711  12.3296  29.9489 0101424   8.7050 349.1837  1.00271808 32812
ASIASAT 4               
1 27718U 03014A   26154.66744676 -.00000212  00000+0  00000+0 0  9991
2 27718   4.6710  75.9122 0002847   1.5460 202.4798  1.00271429 45162
HELLAS-SAT 2            
1 27811U 03020A   26154.99272720 -.00000074  00000+0  00000+0 0  9990
2 27811   7.3221  68.0407 0002894 359.0239 172.7588  1.00272321 42715
THURAYA-2               
1 27825U 03026A   26155.75550181  .00000134  00000+0  00000+0 0  9992
2 27825   8.8223  32.0337 0003295   2.2103 174.9252  1.00271297 84229
OPTUS C1                
1 27831U 03028B   26154.60669470 -.00000142  00000+0  00000+0 0  9996
2 27831   6.8560  69.5733 0005945 359.0038 197.6191  1.00271091 52925
USA 170                 
1 27875U 03040A   26154.85698575  .00000134  00000+0  00000+0 0  9993
2 27875  10.4722  48.0737 0001951  25.2319 151.7571  1.00276751 32869
GALAXY 13 (HORIZONS-1)  
1 27954U 03044A   26155.32503002  .00000144  00000+0  00000+0 0  9999
2 27954   1.3870  84.0130 0002058 341.9394 153.8108  1.00271435 46449
YAMAL 202               
1 28089U 03053A   26154.59927986 -.00000070  00000+0  00000+0 0  9997
2 28089   6.3108  71.0995 0003221 342.3713 217.9005  1.00272577 82565
UFO 11 (USA 174)        
1 28117U 03057A   26154.72444664 -.00000096  00000+0  00000+0 0  9993
2 28117   8.9387  33.8971 0002368  37.7432 156.8643  1.00273609 82317
USA 176 (DSP 22)        
1 28158U 04004A   26155.05530510 -.00000290  00000+0  00000+0 0  9990
2 28158  12.0445  26.1674 0001204 314.7961 237.8270  1.00410479 32804
ABS-4 (MOBISAT-1)       
1 28184U 04007A   26154.86417913  .00000049  00000+0  00000+0 0  9992
2 28184   6.0092  72.1665 0005092 357.8941 194.3313  1.00270189 52203
INTELSAT 10-02          
1 28358U 04022A   26155.06569512  .00000001  00000+0  00000+0 0  9996
2 28358   0.0110 351.1008 0000276 123.8111 160.2515  1.00270913 80427
ANIK F2                 
1 28378U 04027A   26154.97268951 -.00000039  00000+0  00000+0 0  9997
2 28378   3.2526  79.6223 0004590 359.5132  52.3316  1.00272419 41138
AMC-15                  
1 28446U 04041A   26155.15017093 -.00000077  00000+0  00000+0 0  9991
2 28446   0.0231 313.7011 0002483 117.5433 130.3692  1.00271778 79170
NSS-10                  
1 28526U 05003A   26155.12972288 -.00000242  00000+0  00000+0 0  9996
2 28526   6.4169  70.6121 0003132   1.3829 189.8291  1.00270663 53023
INMARSAT 4-F1           
1 28628U 05009A   26155.78196692  .00000044  00000+0  00000+0 0  9993
2 28628   5.1510  42.7354 0002965  33.3896 276.7273  1.00273395 77546
DIRECTV 8               
1 28659U 05019A   26155.24280872  .00000013  00000+0  00000+0 0  9999
2 28659   0.0022   4.3650 0003158  74.6741 142.0217  1.00271287 76941
GALAXY 28 (G-28)        
1 28702U 05022A   26155.13193449 -.00000189  00000+0  00000+0 0  9998
2 28702   3.2649  79.0912 0003233   0.1428 193.7437  1.00269229 51842
THAICOM 4               
1 28786U 05028A   26155.30358586 -.00000350  00000+0  00000+0 0  9990
2 28786   0.2120  86.1056 0002113 345.9215  49.5253  1.00271384 52124
ANIK F1R                
1 28868U 05036A   26155.23725381 -.00000064  00000+0  00000+0 0  9995
2 28868   4.2794  76.7386 0004500 359.7038 154.3679  1.00272982 46322
SYRACUSE 3A             
1 28885U 05041B   26155.75802890  .00000140  00000+0  00000+0 0  9992
2 28885   4.6121  75.9873 0003180 334.5601 162.1953  1.00269187 75621
INMARSAT 4-F2           
1 28899U 05044A   26154.94643249 -.00000250  00000+0  00000+0 0  9994
2 28899   5.0778  43.7191 0003276  29.7378 303.1482  1.00270607 75381
METEOSAT-9 (MSG-2)      
1 28912U 05049B   26155.75621890  .00000133  00000+0  00000+0 0  9992
2 28912   9.3326  54.2885 0002327  39.0161 117.8525  1.00267492  6874
EUTELSAT 174A           
1 28924U 05052A   26155.27895912  .00000020  00000+0  00000+0 0  9999
2 28924   4.1866  76.6844 0006582 357.3806  93.1082  1.00269402 52206
ECHOSTAR 10             
1 28935U 06003A   26155.23725381 -.00000043  00000+0  00000+0 0  9992
2 28935   0.0180 333.8171 0001480  95.7637 158.3284  1.00272159 74339
SPAINSAT                
1 28945U 06007A   26154.38446645 -.00000205  00000+0  00000+0 0  9995
2 28945   0.5272  86.7808 0005107 346.3058 286.9735  1.00271153 74084
JCSAT-5A                
1 29045U 06010A   26155.30609919 -.00000316  00000+0  00000+0 0  9992
2 29045   1.0758  84.3614 0002188   1.0414  49.5970  1.00272822 73646
ASTRA 1KR               
1 29055U 06012A   26155.14103453  .00000131  00000+0  00000+0 0  9993
2 29055   0.4399  83.1948 0003727 349.0765 250.0907  1.00272761 45563
